STARLINK-1542           
1 46073U 20055AY  26068.34464086  .00000701  00000+0  65931-4 0  9994
2 46073  53.0559  98.1686 0001459  82.5697 277.5458 15.06405667309250
ICEYE-X36               
1 59103U 24043F   26068.88263796  .00006107  00000+0  42379-3 0  9993
2 59103  97.8198 205.3571 0004801 299.2298  60.8448 15.05951442110197
